{
    "CCSDS_OMM_VERS": "3.0",
    "COMMENT": "GENERATED VIA SPACE-TRACK.ORG API",
    "CREATION_DATE": "2025-05-22T22:36:18",
    "ORIGINATOR": "18 SPCS",
    "OBJECT_NAME": "BEIDOU 2 G8",
    "OBJECT_ID": "2019-027A",
    "CENTER_NAME": "EARTH",
    "REF_FRAME": "TEME",
    "TIME_SYSTEM": "UTC",
    "MEAN_ELEMENT_THEORY": "SGP4",
    "EPOCH": "2025-05-22T20:09:00.835200",
    "MEAN_MOTION": "1.00272113",
    "ECCENTRICITY": "0.00045570",
    "INCLINATION": "1.6274",
    "RA_OF_ASC_NODE": "75.0190",
    "ARG_OF_PERICENTER": "257.2007",
    "MEAN_ANOMALY": "355.3492",
    "EPHEMERIS_TYPE": "0",
    "CLASSIFICATION_TYPE": "U",
    "NORAD_CAT_ID": "44231",
    "ELEMENT_SET_NO": "999",
    "REV_AT_EPOCH": "2216",
    "BSTAR": "0.00000000000000",
    "MEAN_MOTION_DOT": "-0.00000236",
    "MEAN_MOTION_DDOT": "0.0000000000000",
    "SEMIMAJOR_AXIS": "42164.640",
    "PERIOD": "1436.092",
    "APOAPSIS": "35805.719",
    "PERIAPSIS": "35767.291",
    "OBJECT_TYPE": "PAYLOAD",
    "RCS_SIZE": "LARGE",
    "COUNTRY_CODE": "PRC",
    "LAUNCH_DATE": "2019-05-17",
    "SITE": "XSC",
    "DECAY_DATE": null,
    "FILE": "4736351",
    "GP_ID": "288160299",
    "TLE_LINE0": "0 BEIDOU 2 G8",
    "TLE_LINE1": "1 44231U 19027A   25142.83959300 -.00000236  00000-0  00000+0 0  9995",
    "TLE_LINE2": "2 44231   1.6274  75.0190 0004557 257.2007 355.3492  1.00272113 22161"
}